STARLINK-2738           
1 48668U 21044AG  26068.78726178  .00001366  00000+0  58240-4 0  9999
2 48668  53.1579 103.5158 0001324  95.9871 264.1280 15.30207829263984
YAOGAN-36 04C           
1 54750U 22171E   26068.78871400  .00016196  00000+0  54592-3 0  9991
2 54750  34.9797  96.6578 0006685 275.3761  84.6192 15.29852307180246
